NORAD_CAT_ID,OBJECT_NAME,OBJECT_TYPE,EPOCH,MEAN_MOTION,ECCENTRICITY,INCLINATION,RA_OF_ASC_NODE,ARG_OF_PERICENTER,MEAN_ANOMALY,BSTAR,MEAN_MOTION_DOT,MEAN_MOTION_DDOT,TLE_LINE0,TLE_LINE1,TLE_LINE2,SEMIMAJOR_AXIS,PERIOD,APOGEE,PERIGEE,DECAYED
53849.0,STARLINK-4770,PAYLOAD,2023-06-11 20:59:18,15.08840201,0.0001147,53.2165,111.2959,86.0955,274.0168,3.6534e-05,2.94e-06,0.0,0 STARLINK-4770,1 53849U 22114AH  23162.87452372  .00000294  00000-0  36534-4 0  9991,2 53849  53.2165 111.2959 0001147  86.0955 274.0168 15.08840201 41739,6917.88,95.438,540.538,538.951,0.0
53849.0,STARLINK-4770,PAYLOAD,2023-06-12 06:31:37,15.08848498,0.000117,53.2165,109.5115,82.6069,277.5056,1.9859e-05,2.8e-07,0.0,0 STARLINK-4770,1 53849U 22114AH  23163.27195835  .00000028  00000-0  19859-4 0  9990,2 53849  53.2165 109.5115 0001170  82.6069 277.5056 15.08848498 41254,6917.854,95.437,540.529,538.91,0.0
53849.0,STARLINK-4770,PAYLOAD,2023-06-12 12:53:10,15.08840679,0.0001079,53.2166,108.3206,84.6344,275.4771,2.8622e-05,1.68e-06,0.0,0 STARLINK-4770,1 53849U 22114AH  23163.53692231  .00000168  00000-0  28622-4 0  9994,2 53849  53.2166 108.3206 0001079  84.6344 275.4771 15.08840679 41837,6917.878,95.438,540.49,538.997,0.0
53849.0,STARLINK-4770,PAYLOAD,2023-06-13 04:47:02,15.088341,0.0001216,53.2168,105.3476,83.4391,276.674,3.0827e-05,2.03e-06,0.0,0 STARLINK-4770,1 53849U 22114AH  23164.19932901  .00000203  00000-0  30827-4 0  9998,2 53849  53.2168 105.3476 0001216  83.4391 276.6740 15.08834100 41399,6917.898,95.438,540.605,538.922,0.0
53849.0,STARLINK-4770,PAYLOAD,2023-06-13 20:40:53,15.08835637,0.0001279,53.2181,102.3774,95.4128,264.701,-2.4504e-05,-6.78e-06,0.0,0 STARLINK-4770,1 53849U 22114AH  23164.86173229 -.00000678  00000-0 -24504-4 0  9995,2 53849  53.2181 102.3774 0001279  95.4128 264.7010 15.08835637 42038,6917.894,95.438,540.644,538.874,0.0
53849.0,STARLINK-4770,PAYLOAD,2023-06-14 06:13:12,15.08840496,0.0001215,53.2182,100.5929,87.2391,272.874,4.4145e-05,4.15e-06,0.0,0 STARLINK-4770,1 53849U 22114AH  23165.25916824  .00000415  00000-0  44145-4 0  9995,2 53849  53.2182 100.5929 0001215  87.2391 272.8740 15.08840496 41557,6917.879,95.438,540.584,538.903,0.0
53849.0,STARLINK-4770,PAYLOAD,2023-06-14 18:56:17,15.08831302,0.0001381,53.2179,98.214,92.1412,267.9738,6.2981e-05,7.14e-06,0.0,0 STARLINK-4770,1 53849U 22114AH  23165.78909541  .00000714  00000-0  62981-4 0  9991,2 53849  53.2179  98.2140 0001381  92.1412 267.9738 15.08831302 41631,6917.907,95.438,540.727,538.817,0.0
53849.0,STARLINK-4770,PAYLOAD,2023-06-15 04:28:36,15.08837158,0.0001236,53.2176,96.4296,92.3219,267.7915,3.5792e-05,2.82e-06,0.0,0 STARLINK-4770,1 53849U 22114AH  23166.18653361  .00000282  00000-0  35792-4 0  9992,2 53849  53.2176  96.4296 0001236  92.3219 267.7915 15.08837158 42233,6917.889,95.438,540.609,538.899,0.0
53849.0,STARLINK-4770,PAYLOAD,2023-06-15 18:47:04,15.08838425,0.0001165,53.217,93.7528,88.2197,271.8929,5.0137e-05,5.1e-06,0.0,0 STARLINK-4770,1 53849U 22114AH  23166.78269421  .00000510  00000-0  50137-4 0  9992,2 53849  53.2170  93.7528 0001165  88.2197 271.8929 15.08838425 42324,6917.885,95.438,540.556,538.944,0.0
53849.0,STARLINK-4770,PAYLOAD,2023-06-16 01:08:36,15.08842705,0.0001142,53.2166,92.5633,91.0859,269.0264,8.5296e-05,1.07e-05,0.0,0 STARLINK-4770,1 53849U 22114AH  23167.04764990  .00001070  00000-0  85296-4 0  9999,2 53849  53.2166  92.5633 0001142  91.0859 269.0264 15.08842705 41826,6917.872,95.437,540.527,538.947,0.0
53849.0,STARLINK-4770,PAYLOAD,2023-06-16 04:19:22,15.08849763,0.0001248,53.217,91.9688,86.4549,273.6585,0.00014074,1.953e-05,0.0,0 STARLINK-4770,1 53849U 22114AH  23167.18012412  .00001953  00000-0  14074-3 0  9994,2 53849  53.2170  91.9688 0001248  86.4549 273.6585 15.08849763 41845,6917.851,95.437,540.579,538.852,0.0
53849.0,STARLINK-4770,PAYLOAD,2023-06-16 12:16:18,15.08844971,0.0001212,53.2166,90.4819,84.0579,276.0551,6.4104e-05,7.33e-06,0.0,0 STARLINK-4770,1 53849U 22114AH  23167.51132785  .00000733  00000-0  64104-4 0  9992,2 53849  53.2166  90.4819 0001212  84.0579 276.0551 15.08844971 42430,6917.865,95.437,540.569,538.892,0.0
53849.0,STARLINK-4770,PAYLOAD,2023-06-17 12:07:06,15.08835961,0.000122,53.2169,86.0215,91.0591,269.0541,8.2132e-06,-1.57e-06,0.0,0 STARLINK-4770,1 53849U 22114AH  23168.50493228 -.00000157  00000-0  82132-5 0  9997,2 53849  53.2169  86.0215 0001220  91.0591 269.0541 15.08835961 42581,6917.893,95.438,540.602,538.914,0.0
53849.0,STARLINK-4770,PAYLOAD,2023-06-18 04:00:58,15.08834439,0.0001493,53.2178,83.048,96.8153,263.3009,-9.0494e-05,-1.728e-05,0.0,0 STARLINK-4770,1 53849U 22114AH  23169.16733932 -.00001728  00000-0 -90494-4 0  9994,2 53849  53.2178  83.0480 0001493  96.8153 263.3009 15.08834439 42687,6917.897,95.438,540.795,538.73,0.0
53849.0,STARLINK-4770,PAYLOAD,2023-06-19 03:51:44,15.08846815,0.0001426,53.2182,78.5872,97.7745,262.341,2.4518e-05,1.02e-06,0.0,0 STARLINK-4770,1 53849U 22114AH  23170.16092773  .00000102  00000-0  24518-4 0  9994,2 53849  53.2182  78.5872 0001426  97.7745 262.3410 15.08846815 42292,6917.86,95.437,540.711,538.738,0.0
53849.0,STARLINK-4770,PAYLOAD,2023-06-20 03:42:31,15.08840382,0.0001215,53.2175,74.1275,89.4687,270.6445,0.00017029,2.423e-05,0.0,0 STARLINK-4770,1 53849U 22114AH  23171.15453303  .00002423  00000-0  17029-3 0  9990,2 53849  53.2175  74.1275 0001215  89.4687 270.6445 15.08840382 42442,6917.879,95.438,540.585,538.904,0.0
53849.0,STARLINK-4770,PAYLOAD,2023-06-20 10:04:04,15.08834816,0.0001202,53.2187,72.9369,89.09,271.0229,0.00011126,1.483e-05,0.0,0 STARLINK-4770,1 53849U 22114AH  23171.41949904  .00001483  00000-0  11126-3 0  9993,2 53849  53.2187  72.9369 0001202  89.0900 271.0229 15.08834816 43020,6917.896,95.438,540.593,538.93,0.0
53849.0,STARLINK-4770,PAYLOAD,2023-06-20 18:01:00,15.08839143,0.0001222,53.218,71.4496,98.5668,261.5462,1.1972e-05,-9.7e-07,0.0,0 STARLINK-4770,1 53849U 22114AH  23171.75069895 -.00000097  00000-0  11972-4 0  9993,2 53849  53.2180  71.4496 0001222  98.5668 261.5462 15.08839143 42532,6917.883,95.438,540.593,538.903,0.0
53849.0,STARLINK-4770,PAYLOAD,2023-06-20 21:11:46,15.08842984,0.0001251,53.2178,70.8552,96.9941,263.1194,4.3246e-05,4.01e-06,0.0,0 STARLINK-4770,1 53849U 22114AH  23171.88317559  .00000401  00000-0  43246-4 0  9997,2 53849  53.2178  70.8552 0001251  96.9941 263.1194 15.08842984 43092,6917.871,95.437,540.602,538.871,0.0
53849.0,STARLINK-4770,PAYLOAD,2023-06-21 00:22:32,15.08849394,0.0001135,53.2177,70.2636,95.7336,264.3786,3.6969e-05,3.01e-06,0.0,0 STARLINK-4770,1 53849U 22114AH  23172.01565118  .00000301  00000-0  36969-4 0  9992,2 53849  53.2177  70.2636 0001135  95.7336 264.3786 15.08849394 42578,6917.852,95.437,540.502,538.931,0.0
53849.0,STARLINK-4770,PAYLOAD,2023-06-21 09:54:51,15.08848307,0.0001011,53.2168,68.4789,93.256,266.8548,2.3377e-05,8.4e-07,0.0,0 STARLINK-4770,1 53849U 22114AH  23172.41309072  .00000084  00000-0  23377-4 0  9998,2 53849  53.2168  68.4789 0001011  93.2560 266.8548 15.08848307 43174,6917.855,95.437,540.419,539.021,0.0
53849.0,STARLINK-4770,PAYLOAD,2023-06-22 01:48:43,15.0884002,0.0001182,53.2173,65.5047,89.4813,270.6315,2.2928e-05,7.7e-07,0.0,0 STARLINK-4770,1 53849U 22114AH  23173.07549959  .00000077  00000-0  22928-4 0  9994,2 53849  53.2173  65.5047 0001182  89.4813 270.6315 15.08840020 42732,6917.88,95.438,540.563,538.928,0.0
53849.0,STARLINK-4770,PAYLOAD,2023-06-23 01:39:29,15.08850498,0.0001156,53.2164,61.0441,90.5338,269.5786,0.00017952,2.571e-05,0.0,0 STARLINK-4770,1 53849U 22114AH  23174.06909295  .00002571  00000-0  17952-3 0  9998,2 53849  53.2164  61.0441 0001156  90.5338 269.5786 15.08850498 42882,6917.848,95.437,540.513,538.914,0.0
53849.0,STARLINK-4770,PAYLOAD,2023-06-23 09:36:25,15.0884113,0.0001232,53.2167,59.558,82.0815,278.0317,3.7799e-05,3.14e-06,0.0,0 STARLINK-4770,1 53849U 22114AH  23174.40029790  .00000314  00000-0  37799-4 0  9994,2 53849  53.2167  59.5580 0001232  82.0815 278.0317 15.08841130 42936,6917.877,95.437,540.594,538.89,0.0
53849.0,STARLINK-4770,PAYLOAD,2023-06-24 15:48:45,15.08837515,0.0001142,53.2167,53.9066,82.1132,277.999,7.9905e-05,9.84e-06,0.0,0 STARLINK-4770,1 53849U 22114AH  23175.65886369  .00000984  00000-0  79905-4 0  9993,2 53849  53.2167  53.9066 0001142  82.1132 277.9990 15.08837515 43125,6917.888,95.438,540.543,538.963,0.0
53849.0,STARLINK-4770,PAYLOAD,2023-06-24 22:10:17,15.08847652,0.0001207,53.2165,52.7176,88.2185,271.8945,0.00011863,1.601e-05,0.0,0 STARLINK-4770,1 53849U 22114AH  23175.92381865  .00001601  00000-0  11863-3 0  9999,2 53849  53.2165  52.7176 0001207  88.2185 271.8945 15.08847652 43169,6917.857,95.437,540.557,538.887,0.0
53849.0,STARLINK-4770,PAYLOAD,2023-06-25 09:18:00,15.08843853,0.0001145,53.2159,50.6366,88.2132,271.8992,5.1869e-05,5.38e-06,0.0,0 STARLINK-4770,1 53849U 22114AH  23176.38750044  .00000538  00000-0  51869-4 0  9998,2 53849  53.2159  50.6366 0001145  88.2132 271.8992 15.08843853 43232,6917.869,95.437,540.526,538.942,0.0
53849.0,STARLINK-4770,PAYLOAD,2023-06-26 17:05:43,15.08835963,7.6e-05,53.2167,44.6884,79.7358,280.372,-1.0118e-05,-4.49e-06,0.0,0 STARLINK-4770,1 53849U 22114AH  23177.71230527 -.00000449  00000-0 -10118-4 0  9990,2 53849  53.2167  44.6884 0000760  79.7358 280.3720 15.08835963 43435,6917.893,95.438,540.283,539.232,0.0
53849.0,STARLINK-4770,PAYLOAD,2023-06-26 21:51:52,15.08843044,0.0001165,53.2167,43.7968,84.5716,275.5409,9.0208e-05,1.148e-05,0.0,0 STARLINK-4770,1 53849U 22114AH  23177.91102267  .00001148  00000-0  90208-4 0  9994,2 53849  53.2167  43.7968 0001165  84.5716 275.5409 15.08843044 43462,6917.871,95.437,540.542,538.93,0.0
53849.0,STARLINK-4770,PAYLOAD,2023-06-27 20:07:16,15.0883819,0.0001187,53.2167,39.6343,81.6518,278.4609,8.4065e-05,1.05e-05,0.0,0 STARLINK-4770,1 53849U 22114AH  23178.83838588  .00001050  00000-0  84065-4 0  9994,2 53849  53.2167  39.6343 0001187  81.6518 278.4609 15.08838190 43601,6917.886,95.438,540.572,538.93,0.0
